{
  "norad_id": 62110,
  "name": "STARLINK-33551",
  "history": [
    {
      "epoch": "2026-04-13T02:26:26.448000Z",
      "apogee_km": 483.9156521859468,
      "perigee_km": 482.13806185386966,
      "latitude_deg": -3.81050577106984e-05,
      "longitude_deg": 133.33105498650227,
      "height_km": 482.643486603799,
      "semi_major_axis_km": 6861.1638570199075,
      "eccentricity": 0.00012954,
      "inclination_deg": 43.0003,
      "raan_deg": 11.2386,
      "arg_perigee_deg": 280.3726,
      "mean_anomaly_deg": 79.6979,
      "mean_motion_rev_day": 15.27587427
    },
    {
      "epoch": "2026-04-14T03:32:56.356800Z",
      "apogee_km": 483.7527856318957,
      "perigee_km": 482.2836750739725,
      "latitude_deg": -2.2567851995261098e-05,
      "longitude_deg": 109.76759074021062,
      "height_km": 482.73481994745555,
      "semi_major_axis_km": 6861.155230352934,
      "eccentricity": 0.00010706,
      "inclination_deg": 43.0009,
      "raan_deg": 5.3309,
      "arg_perigee_deg": 274.6805,
      "mean_anomaly_deg": 85.3924,
      "mean_motion_rev_day": 15.27590308
    },
    {
      "epoch": "2026-04-15T20:21:00.620640Z",
      "apogee_km": 483.8416425220521,
      "perigee_km": 482.21280213567024,
      "latitude_deg": 2.1864726825524326e-05,
      "longitude_deg": -153.52646999567358,
      "height_km": 482.77447274134784,
      "semi_major_axis_km": 6861.164222328861,
      "eccentricity": 0.0001187,
      "inclination_deg": 43.0013,
      "raan_deg": 355.7302,
      "arg_perigee_deg": 272.07,
      "mean_anomaly_deg": 88.0016,
      "mean_motion_rev_day": 15.27587305
    },
    {
      "epoch": "2026-04-16T16:45:02.619936Z",
      "apogee_km": 483.42351239346226,
      "perigee_km": 482.60017453224737,
      "latitude_deg": -3.109867890243207e-05,
      "longitude_deg": -105.17107629189135,
      "height_km": 482.6746759409633,
      "semi_major_axis_km": 6861.1488434628545,
      "eccentricity": 6e-05,
      "inclination_deg": 42.9992,
      "raan_deg": 350.9318,
      "arg_perigee_deg": 285.942,
      "mean_anomaly_deg": 74.1365,
      "mean_motion_rev_day": 15.27592441
    },
    {
      "epoch": "2026-04-17T22:34:00.995520Z",
      "apogee_km": 483.67059411213177,
      "perigee_km": 482.37163965744276,
      "latitude_deg": -3.8961170148005516e-05,
      "longitude_deg": 159.34437692723372,
      "height_km": 482.90188924923063,
      "semi_major_axis_km": 6861.158116884787,
      "eccentricity": 9.466e-05,
      "inclination_deg": 43.0006,
      "raan_deg": 343.915,
      "arg_perigee_deg": 260.7485,
      "mean_anomaly_deg": 99.3259,
      "mean_motion_rev_day": 15.27589344
    },
    {
      "epoch": "2026-04-18T07:58:57.245664Z",
      "apogee_km": 483.91452858778393,
      "perigee_km": 482.1520311662898,
      "latitude_deg": 4.0128940135208235e-05,
      "longitude_deg": 15.507099759354892,
      "height_km": 482.8220769283431,
      "semi_major_axis_km": 6861.170279877037,
      "eccentricity": 0.00012844,
      "inclination_deg": 42.9989,
      "raan_deg": 341.6987,
      "arg_perigee_deg": 269.1989,
      "mean_anomaly_deg": 90.8716,
      "mean_motion_rev_day": 15.27585282
    },
    {
      "epoch": "2026-04-19T07:31:18.080544Z",
      "apogee_km": 483.49041521345134,
      "perigee_km": 482.5398711955313,
      "latitude_deg": -4.676328343824911e-06,
      "longitude_deg": 15.911222235532492,
      "height_km": 482.54120500764503,
      "semi_major_axis_km": 6861.152143204491,
      "eccentricity": 6.927e-05,
      "inclination_deg": 43.0012,
      "raan_deg": 336.1564,
      "arg_perigee_deg": 301.7496,
      "mean_anomaly_deg": 58.3288,
      "mean_motion_rev_day": 15.27591339
    },
    {
      "epoch": "2026-04-20T07:03:39.397536Z",
      "apogee_km": 483.594399557046,
      "perigee_km": 482.5195249109229,
      "latitude_deg": 1.2032009461521072e-05,
      "longitude_deg": 16.31639489914695,
      "height_km": 482.3346197971337,
      "semi_major_axis_km": 6861.193962233984,
      "eccentricity": 7.833e-05,
      "inclination_deg": 43.0006,
      "raan_deg": 330.6171,
      "arg_perigee_deg": 337.9651,
      "mean_anomaly_deg": 22.1167,
      "mean_motion_rev_day": 15.27577373
    }
  ]
}